start=new Date('2022-07-30T00:00:00.000Z').valueOf();
sats=[{"MEAN_MOTION_DDOT":"0.0000000000000","MEAN_MOTION":"15.53185295","GP_ID":"209136095","LAUNCH_DATE":"2022-07-11","APOAPSIS":"408.533","ARG_OF_PERICENTER":"67.4962","TLE_LINE1":"1 53052U 22077K   22210.91667824 -.01302552  00000-0 -22956-1 0  9998","PERIOD":"92.713","OBJECT_ID":"2022-077K","INCLINATION":"97.6553","CLASSIFICATION_TYPE":"U","OBJECT_TYPE":"PAYLOAD","SEMIMAJOR_AXIS":"6785.570","NORAD_CAT_ID":"53052","FILE":"3524848","PERIAPSIS":"406.337","ECCENTRICITY":"0.00016180","COUNTRY_CODE":"US","SITE":"AFWTR","MEAN_ELEMENT_THEORY":"SGP4","REV_AT_EPOCH":"130","MEAN_MOTION_DOT":"-0.01302552","BSTAR":"-0.02295600000000","MEAN_ANOMALY":"28.3400","TIME_SYSTEM":"UTC","DECAY_DATE":null,"ELEMENT_SET_NO":"999","OBJECT_NAME":"STARLINK-4341","EPOCH":"2022-07-29T22:00:00.999936","RCS_SIZE":"LARGE","EPHEMERIS_TYPE":"0","RA_OF_ASC_NODE":"30.1616","CENTER_NAME":"EARTH","TLE_LINE2":"2 53052  97.6553  30.1616 0001618  67.4962  28.3400 15.53185295  1304","REF_FRAME":"TEME"},{"RA_OF_ASC_NODE":"30.1601","EPHEMERIS_TYPE":"0","CENTER_NAME":"EARTH","TLE_LINE2":"2 53053  97.6553  30.1601 0001834  58.0582  41.5964 15.53240364  1304","REF_FRAME":"TEME","DECAY_DATE":null,"ELEMENT_SET_NO":"999","OBJECT_NAME":"STARLINK-4337","RCS_SIZE":"LARGE","EPOCH":"2022-07-29T22:00:00.999936","OBJECT_TYPE":"PAYLOAD","SEMIMAJOR_AXIS":"6785.410","NORAD_CAT_ID":"53053","CLASSIFICATION_TYPE":"U","INCLINATION":"97.6553","COUNTRY_CODE":"US","ECCENTRICITY":"0.00018340","FILE":"3524848","PERIAPSIS":"406.030","REV_AT_EPOCH":"130","MEAN_ELEMENT_THEORY":"SGP4","SITE":"AFWTR","TIME_SYSTEM":"UTC","MEAN_ANOMALY":"41.5964","BSTAR":"-0.02351400000000","MEAN_MOTION_DOT":"-0.01333703","MEAN_MOTION":"15.53240364","MEAN_MOTION_DDOT":"0.0000000000000","LAUNCH_DATE":"2022-07-11","GP_ID":"209136336","PERIOD":"92.709","TLE_LINE1":"1 53053U 22077L   22210.91667824 -.01333703  00000-0 -23514-1 0  9992","ARG_OF_PERICENTER":"58.0582","APOAPSIS":"408.519","OBJECT_ID":"2022-077L"},{"LAUNCH_DATE":"2022-07-11","GP_ID":"209135571","MEAN_MOTION":"15.53205594","MEAN_MOTION_DDOT":"0.0000000000000","OBJECT_ID":"2022-077M","PERIOD":"92.711","TLE_LINE1":"1 53054U 22077M   22210.91667824 -.01311202  00000-0 -23107-1 0  9991","ARG_OF_PERICENTER":"65.4936","APOAPSIS":"408.487","COUNTRY_CODE":"US","ECCENTRICITY":"0.00016370","FILE":"3524848","PERIAPSIS":"406.265","OBJECT_TYPE":"PAYLOAD","NORAD_CAT_ID":"53054","SEMIMAJOR_AXIS":"6785.511","INCLINATION":"97.6553","CLASSIFICATION_TYPE":"U","MEAN_ANOMALY":"31.8706","TIME_SYSTEM":"UTC","BSTAR":"-0.02310700000000","MEAN_MOTION_DOT":"-0.01311202","REV_AT_EPOCH":"130","SITE":"AFWTR","MEAN_ELEMENT_THEORY":"SGP4","ELEMENT_SET_NO":"999","DECAY_DATE":null,"RCS_SIZE":"LARGE","EPOCH":"2022-07-29T22:00:00.999936","OBJECT_NAME":"STARLINK-4339","CENTER_NAME":"EARTH","RA_OF_ASC_NODE":"30.1612","EPHEMERIS_TYPE":"0","REF_FRAME":"TEME","TLE_LINE2":"2 53054  97.6553  30.1612 0001637  65.4936  31.8706 15.53205594  1305"},{"ELEMENT_SET_NO":"999","DECAY_DATE":null,"RCS_SIZE":"LARGE","EPOCH":"2022-07-29T22:00:00.999936","OBJECT_NAME":"STARLINK-4338","CENTER_NAME":"EARTH","RA_OF_ASC_NODE":"30.1587","EPHEMERIS_TYPE":"0","REF_FRAME":"TEME","TLE_LINE2":"2 53055  97.6553  30.1587 0001886  58.6201  42.5616 15.53260159  1309","GP_ID":"209136224","LAUNCH_DATE":"2022-07-11","MEAN_MOTION":"15.53260159","MEAN_MOTION_DDOT":"0.0000000000000","OBJECT_ID":"2022-077N","TLE_LINE1":"1 53055U 22077N   22210.91667824 -.01340854  00000-0 -23636-1 0  9994","PERIOD":"92.708","ARG_OF_PERICENTER":"58.6201","APOAPSIS":"408.497","COUNTRY_CODE":"US","FILE":"3524848","ECCENTRICITY":"0.00018860","PERIAPSIS":"405.937","OBJECT_TYPE":"PAYLOAD","SEMIMAJOR_AXIS":"6785.352","NORAD_CAT_ID":"53055","INCLINATION":"97.6553","CLASSIFICATION_TYPE":"U","MEAN_ANOMALY":"42.5616","TIME_SYSTEM":"UTC","MEAN_MOTION_DOT":"-0.01340854","BSTAR":"-0.02363600000000","REV_AT_EPOCH":"130","SITE":"AFWTR","MEAN_ELEMENT_THEORY":"SGP4"},{"REF_FRAME":"TEME","TLE_LINE2":"2 53056  97.6553  30.1608 0001707  64.3602  34.5310 15.53228867  1307","CENTER_NAME":"EARTH","RA_OF_ASC_NODE":"30.1608","EPHEMERIS_TYPE":"0","RCS_SIZE":"LARGE","EPOCH":"2022-07-29T22:00:00.999936","OBJECT_NAME":"STARLINK-4314","ELEMENT_SET_NO":"999","DECAY_DATE":null,"MEAN_ANOMALY":"34.5310","TIME_SYSTEM":"UTC","BSTAR":"-0.02338400000000","MEAN_MOTION_DOT":"-0.01326476","REV_AT_EPOCH":"130","SITE":"AFWTR","MEAN_ELEMENT_THEORY":"SGP4","COUNTRY_CODE":"US","ECCENTRICITY":"0.00017070","FILE":"3524848","PERIAPSIS":"406.150","OBJECT_TYPE":"PAYLOAD","NORAD_CAT_ID":"53056","SEMIMAJOR_AXIS":"6785.443","INCLINATION":"97.6553","CLASSIFICATION_TYPE":"U","OBJECT_ID":"2022-077P","TLE_LINE1":"1 53056U 22077P   22210.91667824 -.01326476  00000-0 -23384-1 0  9999","PERIOD":"92.710","APOAPSIS":"408.466","ARG_OF_PERICENTER":"64.3602","LAUNCH_DATE":"2022-07-11","GP_ID":"209135697","MEAN_MOTION":"15.53228867","MEAN_MOTION_DDOT":"0.0000000000000"},{"FILE":"3524848","ECCENTRICITY":"0.00018520","PERIAPSIS":"405.896","COUNTRY_CODE":"US","INCLINATION":"97.6553","CLASSIFICATION_TYPE":"U","OBJECT_TYPE":"PAYLOAD","NORAD_CAT_ID":"53057","SEMIMAJOR_AXIS":"6785.288","MEAN_MOTION_DOT":"-0.01352579","BSTAR":"-0.02384600000000","MEAN_ANOMALY":"32.7935","TIME_SYSTEM":"UTC","SITE":"AFWTR","MEAN_ELEMENT_THEORY":"SGP4","REV_AT_EPOCH":"130","LAUNCH_DATE":"2022-07-11","GP_ID":"209136448","MEAN_MOTION_DDOT":"0.0000000000000","MEAN_MOTION":"15.53282105","OBJECT_ID":"2022-077Q","ARG_OF_PERICENTER":"69.9146","APOAPSIS":"408.410","TLE_LINE1":"1 53057U 22077Q   22210.91667824 -.01352579  00000-0 -23846-1 0  9996","PERIOD":"92.707","CENTER_NAME":"EARTH","EPHEMERIS_TYPE":"0","RA_OF_ASC_NODE":"30.1581","REF_FRAME":"TEME","TLE_LINE2":"2 53057  97.6553  30.1581 0001852  69.9146  32.7935 15.53282105  1301","ELEMENT_SET_NO":"999","DECAY_DATE":null,"EPOCH":"2022-07-29T22:00:00.999936","RCS_SIZE":"LARGE","OBJECT_NAME":"STARLINK-4252"},{"EPOCH":"2022-07-29T22:00:00.999936","RCS_SIZE":"LARGE","OBJECT_NAME":"STARLINK-4317","ELEMENT_SET_NO":"999","DECAY_DATE":null,"REF_FRAME":"TEME","TLE_LINE2":"2 53058  97.6553  30.1592 0001820  59.3661  41.0524 15.53248837  1305","CENTER_NAME":"EARTH","EPHEMERIS_TYPE":"0","RA_OF_ASC_NODE":"30.1592","OBJECT_ID":"2022-077R","ARG_OF_PERICENTER":"59.3661","APOAPSIS":"408.485","PERIOD":"92.709","TLE_LINE1":"1 53058U 22077R   22210.91667824 -.01334121  00000-0 -23515-1 0  9993","GP_ID":"209135970","LAUNCH_DATE":"2022-07-11","MEAN_MOTION_DDOT":"0.0000000000000","MEAN_MOTION":"15.53248837","BSTAR":"-0.02351500000000","MEAN_MOTION_DOT":"-0.01334121","MEAN_ANOMALY":"41.0524","TIME_SYSTEM":"UTC","SITE":"AFWTR","MEAN_ELEMENT_THEORY":"SGP4","REV_AT_EPOCH":"130","FILE":"3524848","ECCENTRICITY":"0.00018200","PERIAPSIS":"406.015","COUNTRY_CODE":"US","INCLINATION":"97.6553","CLASSIFICATION_TYPE":"U","NORAD_CAT_ID":"53058","OBJECT_TYPE":"PAYLOAD","SEMIMAJOR_AXIS":"6785.385"},{"PERIOD":"92.706","TLE_LINE1":"1 53059U 22077S   22210.91667824 -.01357805  00000-0 -23931-1 0  9990","APOAPSIS":"408.399","ARG_OF_PERICENTER":"66.5905","OBJECT_ID":"2022-077S","MEAN_MOTION":"15.53301041","MEAN_MOTION_DDOT":"0.0000000000000","GP_ID":"209135825","LAUNCH_DATE":"2022-07-11","REV_AT_EPOCH":"130","MEAN_ELEMENT_THEORY":"SGP4","SITE":"AFWTR","TIME_SYSTEM":"UTC","MEAN_ANOMALY":"37.6444","MEAN_MOTION_DOT":"-0.01357805","BSTAR":"-0.02393100000000","OBJECT_TYPE":"PAYLOAD","NORAD_CAT_ID":"53059","SEMIMAJOR_AXIS":"6785.233","CLASSIFICATION_TYPE":"U","INCLINATION":"97.6553","COUNTRY_CODE":"US","FILE":"3524848","PERIAPSIS":"405.796","ECCENTRICITY":"0.00019180","OBJECT_NAME":"STARLINK-4320","RCS_SIZE":"LARGE","EPOCH":"2022-07-29T22:00:00.999936","DECAY_DATE":null,"ELEMENT_SET_NO":"999","TLE_LINE2":"2 53059  97.6553  30.1566 0001918  66.5905  37.6444 15.53301041  1305","REF_FRAME":"TEME","RA_OF_ASC_NODE":"30.1566","EPHEMERIS_TYPE":"0","CENTER_NAME":"EARTH"},{"MEAN_MOTION_DOT":"-0.01347018","BSTAR":"-0.02374600000000","MEAN_ANOMALY":"45.1571","TIME_SYSTEM":"UTC","SITE":"AFWTR","MEAN_ELEMENT_THEORY":"SGP4","REV_AT_EPOCH":"130","ECCENTRICITY":"0.00019690","FILE":"3524848","PERIAPSIS":"405.849","COUNTRY_CODE":"US","INCLINATION":"97.6553","CLASSIFICATION_TYPE":"U","OBJECT_TYPE":"PAYLOAD","SEMIMAJOR_AXIS":"6785.320","NORAD_CAT_ID":"53060","OBJECT_ID":"2022-077T","APOAPSIS":"408.521","ARG_OF_PERICENTER":"56.7879","PERIOD":"92.708","TLE_LINE1":"1 53060U 22077T   22210.91667824 -.01347018  00000-0 -23746-1 0  9991","LAUNCH_DATE":"2022-07-11","GP_ID":"209136096","MEAN_MOTION_DDOT":"0.0000000000000","MEAN_MOTION":"15.53271224","REF_FRAME":"TEME","TLE_LINE2":"2 53060  97.6553  30.1588 0001969  56.7879  45.1571 15.53271224  1302","CENTER_NAME":"EARTH","EPHEMERIS_TYPE":"0","RA_OF_ASC_NODE":"30.1588","EPOCH":"2022-07-29T22:00:00.999936","RCS_SIZE":"LARGE","OBJECT_NAME":"STARLINK-4305","ELEMENT_SET_NO":"999","DECAY_DATE":null},{"OBJECT_ID":"2022-077U","ARG_OF_PERICENTER":"71.6634","APOAPSIS":"408.316","TLE_LINE1":"1 53061U 22077U   22210.91667824 -.01365865  00000-0 -24071-1 0  9994","PERIOD":"92.705","LAUNCH_DATE":"2022-07-11","GP_ID":"209136337","MEAN_MOTION_DDOT":"0.0000000000000","MEAN_MOTION":"15.53321265","BSTAR":"-0.02407100000000","MEAN_MOTION_DOT":"-0.01365865","TIME_SYSTEM":"UTC","MEAN_ANOMALY":"34.0976","MEAN_ELEMENT_THEORY":"SGP4","SITE":"AFWTR","REV_AT_EPOCH":"130","ECCENTRICITY":"0.00018820","FILE":"3524848","PERIAPSIS":"405.762","COUNTRY_CODE":"US","CLASSIFICATION_TYPE":"U","INCLINATION":"97.6553","OBJECT_TYPE":"PAYLOAD","NORAD_CAT_ID":"53061","SEMIMAJOR_AXIS":"6785.174","EPOCH":"2022-07-29T22:00:00.999936","RCS_SIZE":"LARGE","OBJECT_NAME":"STARLINK-4308","ELEMENT_SET_NO":"999","DECAY_DATE":null,"REF_FRAME":"TEME","TLE_LINE2":"2 53061  97.6553  30.1562 0001882  71.6634  34.0976 15.53321265  1301","CENTER_NAME":"EARTH","EPHEMERIS_TYPE":"0","RA_OF_ASC_NODE":"30.1562"}];
